name,address,latitude,longitude,opening_hours,website,instagram,map_embed
TK NIGHTCLUB,〒150-0042 東京都渋谷区宇田川町１３−８ B1,35.660941100000000,139.6985674,,,,https://www.google.com/maps/embed/v1/place?key=AIzaSyAut9NbtYesO3gS65jsNLQxmn9WzohquRs&q=place_id:ChIJi9W-AKmMGGARgTIvRY42-po
CLUB VIZEL,〒150-0042 東京都渋谷区宇田川町１２−３ ｢ニュー渋谷コーポラス 1F｣,35.6617771,139.6980776,,,,https://www.google.com/maps/embed/v1/place?key=AIzaSyAut9NbtYesO3gS65jsNLQxmn9WzohquRs&q=place_id:ChIJN2wOUeONGGARULDASBtua_0
R Lounge,〒150-0042 東京都渋谷区宇田川町４−７ トウセン宇田川町ビル 6-7階,35.6625048,139.6978734,,,,https://www.google.com/maps/embed/v1/place?key=AIzaSyAut9NbtYesO3gS65jsNLQxmn9WzohquRs&q=place_id:ChIJORMuOqmMGGARuUTOAOwRSRI
ATOM TOKYO -Shibuya-,〒150-0044 東京都渋谷区円山町２−４ ドクタージーカンズビル 4F/6F,35.658305900000000,139.6954048,,,,https://www.google.com/maps/embed/v1/place?key=AIzaSyAut9NbtYesO3gS65jsNLQxmn9WzohquRs&q=place_id:ChIJgQQtEqqMGGAR0lBz9of3YVI
LAUREL TOKYO,〒150-0043 東京都渋谷区道玄坂１丁目１７−９ ホテルＳＫ ＰＬＡＺＡ B1F,35.6569107,139.696871,,,,https://www.google.com/maps/embed/v1/place?key=AIzaSyAut9NbtYesO3gS65jsNLQxmn9WzohquRs&q=place_id:ChIJUwITbVaLGGARytnw8TVF2Ms
CLUB CAMELOT,〒150-0041 東京都渋谷区神南１丁目１８−２ フレーム神南坂 B3,35.662660000000000,139.70003700000000,,,,https://www.google.com/maps/embed/v1/place?key=AIzaSyAut9NbtYesO3gS65jsNLQxmn9WzohquRs&q=place_id:ChIJu5JQ66iMGGARx4LoABnQNPU
WOMB,〒150-0044 東京都渋谷区円山町２−１６,35.6584234,139.69494510000000,,,,https://www.google.com/maps/embed/v1/place?key=AIzaSyAut9NbtYesO3gS65jsNLQxmn9WzohquRs&q=place_id:ChIJQVW_FKqMGGARQwUFx1IqoEc
BRAND SHIBUYA - ブランド渋谷 バー＆ラウンジ,〒150-0043 東京都渋谷区道玄坂２丁目２３−１３ 渋谷デリタワービル B1F,35.6601085,139.69613310000000,,,,https://www.google.com/maps/embed/v1/place?key=AIzaSyAut9NbtYesO3gS65jsNLQxmn9WzohquRs&q=place_id:ChIJybIt9OyNGGARQJBiLZ1vpn0
BAIA,〒150-0042 東京都渋谷区宇田川町１６−１７,35.661639800000000,139.6990748,,,,https://www.google.com/maps/embed/v1/place?key=AIzaSyAut9NbtYesO3gS65jsNLQxmn9WzohquRs&q=place_id:ChIJETgY-i-NGGAROpxb-9rKp1E
翠月 - MITSUKI -,〒150-0043 東京都渋谷区道玄坂１丁目２２−１２ 長島第一ビル B1,35.6565897,139.69574650000000,,,,https://www.google.com/maps/embed/v1/place?key=AIzaSyAut9NbtYesO3gS65jsNLQxmn9WzohquRs&q=place_id:ChIJpekkTDCLGGARBNIAKaSmr5c
HARLEM,〒150-0044 東京都渋谷区円山町２−４ Dr−２−４ ドクタージーカンズビル 2F・3F,35.658306000000000,139.69527390000000,,,,https://www.google.com/maps/embed/v1/place?key=AIzaSyAut9NbtYesO3gS65jsNLQxmn9WzohquRs&q=place_id:ChIJS9rHE6qMGGARShO63ATTEow
clubasia,〒150-0044 東京都渋谷区円山町１−８,35.6589974,139.6953088,,,,https://www.google.com/maps/embed/v1/place?key=AIzaSyAut9NbtYesO3gS65jsNLQxmn9WzohquRs&q=place_id:ChIJVVUBPKqMGGARiXgNlzpNTaU
S NIGHTCLUB,〒150-0041 東京都渋谷区神南１丁目２３−２３−１０ MAGNET by SHIBUYA 109 7F,35.659849,139.700863,,,,https://www.google.com/maps/embed/v1/place?key=AIzaSyAut9NbtYesO3gS65jsNLQxmn9WzohquRs&q=place_id:ChIJf4SgRgCNGGAR_amV0dRd66M
エンター,〒150-0002 東京都渋谷区神宮前６丁目１９−１７ GEMS神宮前 6F,35.663763600000000,139.7023757,,,,https://www.google.com/maps/embed/v1/place?key=AIzaSyAut9NbtYesO3gS65jsNLQxmn9WzohquRs&q=place_id:ChIJxV9IlbmLGGART_WEpX1ocSA
DJ Bar & Lounge WREP,〒150-0002 東京都渋谷区渋谷１丁目２５−６ 渋谷パークサイド共同ビル ９階,35.6596826,139.7015088,,,,https://www.google.com/maps/embed/v1/place?key=AIzaSyAut9NbtYesO3gS65jsNLQxmn9WzohquRs&q=place_id:ChIJ__9LAliLGGARysMvf07AlXY
WARP SHINJUKU,〒160-0021 東京都新宿区歌舞伎町１丁目２１−１ 第二東亜会館 B1,35.6952253,139.70130700000000,,,,https://www.google.com/maps/embed/v1/place?key=AIzaSyAut9NbtYesO3gS65jsNLQxmn9WzohquRs&q=place_id:ChIJvYQ91B-NGGARALbKcCguZS4
VOYAGER LOUNGE SHIBUYA DJ BAR,〒150-0044 東京都渋谷区円山町２−６ J PLAZAビル 1F,35.6581342,139.6954865,,,,https://www.google.com/maps/embed/v1/place?key=AIzaSyAut9NbtYesO3gS65jsNLQxmn9WzohquRs&q=place_id:ChIJjWdA-uaNGGARmNIl_WcfYcg
IBEX TOKYO,"21泰明ビル 5F, ３丁目-１１-6 六本木 港区 東京都 106-0032",35.663082600000000,139.73316410000000,,,,https://www.google.com/maps/embed/v1/place?key=AIzaSyAut9NbtYesO3gS65jsNLQxmn9WzohquRs&q=place_id:ChIJ24YF8JyLGGARQoS15T_ctL0
Shibuya CLUB BALL,〒150-0042 東京都渋谷区宇田川町４−９ くれたけビル 4F,35.6624804,139.6977086,,,,https://www.google.com/maps/embed/v1/place?key=AIzaSyAut9NbtYesO3gS65jsNLQxmn9WzohquRs&q=place_id:ChIJFci2OamMGGAREDy3h6WKd0g
渋谷 CLUB QUATTRO,〒150-0042 東京都渋谷区宇田川町３２−１３ 4・5F,35.6611055,139.6975463,,,,https://www.google.com/maps/embed/v1/place?key=AIzaSyAut9NbtYesO3gS65jsNLQxmn9WzohquRs&q=place_id:ChIJcbk5C6mMGGARp-MhjqJJEnM